[{"OBJECT_NAME":"FLOCK 4G-18","OBJECT_ID":"2025-009BZ","EPOCH":"2026-03-09T04:35:14.656704","MEAN_MOTION":15.27241676,"ECCENTRICITY":0.00041001,"INCLINATION":97.4054,"RA_OF_ASC_NODE":150.5008,"ARG_OF_PERICENTER":335.7331,"MEAN_ANOMALY":24.3715,"EPHEMERIS_TYPE":0,"CLASSIFICATION_TYPE":"U","NORAD_CAT_ID":62680,"ELEMENT_SET_NO":999,"REV_AT_EPOCH":12126,"BSTAR":0.0004431856,"MEAN_MOTION_DOT":0.00011766,"MEAN_MOTION_DDOT":0},{"OBJECT_NAME":"STARLINK-33668","OBJECT_ID":"2025-065D","EPOCH":"2026-03-09T11:02:56.243616","MEAN_MOTION":15.27588199,"ECCENTRICITY":0.00014423,"INCLINATION":42.9904,"RA_OF_ASC_NODE":108.4811,"ARG_OF_PERICENTER":73.3421,"MEAN_ANOMALY":286.7589,"EPHEMERIS_TYPE":0,"CLASSIFICATION_TYPE":"U","NORAD_CAT_ID":63402,"ELEMENT_SET_NO":999,"REV_AT_EPOCH":5280,"BSTAR":0.00081705876,"MEAN_MOTION_DOT":0.00022295,"MEAN_MOTION_DDOT":0}]
